{
  "type": "FeatureCollection",
  "name": "NASA Discarded Martian Equipment",
  "features": [
    {
      "type": "Feature",
      "geometry": {
        "type": "Point",
        "coordinates": [-5.5266, -1.9462]
      },
      "properties": {
        "id": "oppy-rover",
        "name": "Opportunity Rover (MER-B)",
        "mission": "Mars Exploration Rover Mission",
        "body": "Mars",
        "type": "rover",
        "year": 2004,
        "landingDate": "January 25, 2004",
        "leftBehindDate": "June 10, 2018 (Final Transmission)",
        "lastContact": "June 10, 2018 (Sol 5111)",
        "coordinatesFormatted": "1.9462° S, 354.4734° E (Perseverance Valley)",
        "whyLeft": "Engineered for 90 Martian days (Sols), Oppy operated for 15 years until a colossal planet-encircling dust storm blotted out the Sun in 2018, depleting its solar power arrays.",
        "scienceEnabled": "Discovered hematite spherules nicknamed 'blueberries' and sulfate evaporite rocks, confirming that neutral-pH liquid water once flowed steadily across the Martian surface.",
        "image": "https://images-assets.nasa.gov/image/PIA05208/PIA05208~orig.jpg",
        "imageCredit": "NASA / JPL-Caltech / Cornell",
        "nasaSource": "NASA Planetary Data System (PDS) / Mars Trek",
        "datasetId": "PDS-GEO-MER2-APXS-EDR-V1.0",
        "funFact": "Oppy completed a full marathon distance on another world, driving a cumulative total of 45.16 kilometers (28.06 miles)!"
      }
    },
    {
      "type": "Feature",
      "geometry": {
        "type": "Point",
        "coordinates": [175.4726, -14.5684]
      },
      "properties": {
        "id": "spirit-rover",
        "name": "Spirit Rover (MER-A)",
        "mission": "Mars Exploration Rover Mission",
        "body": "Mars",
        "type": "rover",
        "year": 2004,
        "landingDate": "January 4, 2004",
        "leftBehindDate": "March 22, 2010 (Final Transmission)",
        "lastContact": "March 22, 2010 (Sol 2210)",
        "coordinatesFormatted": "14.5684° S, 175.4726° E (Troy, Gusev Crater)",
        "whyLeft": "Became trapped in soft sandy terrain named 'Troy' in 2009 with a broken front wheel. Operated as a stationary science platform until freezing Martian winter temperatures silenced communications.",
        "scienceEnabled": "When dragging its jammed right-front wheel, it inadvertently scraped open soil with 90% pure silica content, direct evidence of ancient volcanic hydrothermal hot springs suitable for microbial life.",
        "image": "https://images-assets.nasa.gov/image/PIA05200/PIA05200~orig.jpg",
        "imageCredit": "NASA / JPL-Caltech / Cornell",
        "nasaSource": "NASA Planetary Data System (PDS)",
        "datasetId": "PDS-GEO-MER1-MB-EDR-V1.0",
        "funFact": "Spirit's accidental discovery of pure white silica came from a 'broken' wheel dragging through the dirt, turning a hardware failure into one of Mars exploration's greatest triumphs!"
      }
    },
    {
      "type": "Feature",
      "geometry": {
        "type": "Point",
        "coordinates": [-47.97, 22.48]
      },
      "properties": {
        "id": "viking-1-lander",
        "name": "Viking 1 Lander (Thomas Mutch Memorial Station)",
        "mission": "Viking Project",
        "body": "Mars",
        "type": "lander",
        "year": 1976,
        "landingDate": "July 20, 1976",
        "leftBehindDate": "November 11, 1982 (Final Contact)",
        "lastContact": "November 11, 1982 (Sol 2245)",
        "coordinatesFormatted": "22.48° N, 47.97° W (Chryse Planitia)",
        "whyLeft": "Humanity's first long-duration robotic mission on Mars. Silenced in November 1982 after an erroneous software command update from ground control overwrote antenna orientation parameters.",
        "scienceEnabled": "Transmitted the first historic high-resolution photos and color panoramas from the Martian surface. Analyzed atmospheric composition, daily weather, and conducted automated biological soil tests.",
        "image": "https://images-assets.nasa.gov/image/PIA00563/PIA00563~orig.jpg",
        "imageCredit": "NASA / JPL",
        "nasaSource": "NASA Planetary Data System (PDS) / Mars Trek",
        "datasetId": "PDS-GEO-V1-CAMERA-V1.0",
        "funFact": "Viking 1 operated on nuclear decay power (RTG), allowing it to survive for 6 straight Earth years when engineers originally only guaranteed 90 days."
      }
    },
    {
      "type": "Feature",
      "geometry": {
        "type": "Point",
        "coordinates": [-134.01, 48.27]
      },
      "properties": {
        "id": "viking-2-lander",
        "name": "Viking 2 Lander",
        "mission": "Viking Project",
        "body": "Mars",
        "type": "lander",
        "year": 1976,
        "landingDate": "September 3, 1976",
        "leftBehindDate": "April 11, 1980",
        "lastContact": "April 11, 1980 (Sol 1281)",
        "coordinatesFormatted": "48.27° N, 134.01° W (Utopia Planitia)",
        "whyLeft": "Stationary lander positioned in northern volcanic plains. Operated for nearly 4 Earth years until its secondary batteries failed completely.",
        "scienceEnabled": "Operated a surface seismometer, monitored northern Martian winter frost condensations, and sampled boulders and drift material across Utopia Planitia.",
        "image": "https://images-assets.nasa.gov/image/PIA00572/PIA00572~orig.jpg",
        "imageCredit": "NASA / JPL",
        "nasaSource": "NASA Planetary Data System (PDS)",
        "datasetId": "PDS-GEO-V2-XRFS-EDR-V1.0",
        "funFact": "Viking 2 captured images of pure water-ice frost coating the red rocks around the lander during the Martian winter."
      }
    },
    {
      "type": "Feature",
      "geometry": {
        "type": "Point",
        "coordinates": [-33.55, 19.33]
      },
      "properties": {
        "id": "pathfinder-sojourner",
        "name": "Mars Pathfinder & Sojourner Rover (Carl Sagan Memorial Station)",
        "mission": "Discovery Program (Pathfinder)",
        "body": "Mars",
        "type": "rover",
        "year": 1997,
        "landingDate": "July 4, 1997",
        "leftBehindDate": "September 27, 1997",
        "lastContact": "September 27, 1997 (Sol 83)",
        "coordinatesFormatted": "19.33° N, 33.55° W (Ares Vallis)",
        "whyLeft": "Pioneered the airbag landing system and deployed Sojourner, humanity's first wheeled rover on Mars. Communications ceased when the lander's master battery died.",
        "scienceEnabled": "Proved mobile roving robotics were viable on alien terrain. Analyzed volcanic rocks named 'Barnacle Bill' and 'Yogi' using Alpha Proton X-ray Spectrometer (APXS).",
        "image": "https://images-assets.nasa.gov/image/PIA01551/PIA01551~orig.jpg",
        "imageCredit": "NASA / JPL",
        "nasaSource": "NASA Solar System Treks (Mars Trek)",
        "datasetId": "PDS-GEO-MPF-APXS-EDR-V1.0",
        "funFact": "Sojourner was about the size of a microwave oven (weighing just 10.5 kg) and drove at a maximum speed of 1 centimeter per second!"
      }
    },
    {
      "type": "Feature",
      "geometry": {
        "type": "Point",
        "coordinates": [135.6234, 4.5024]
      },
      "properties": {
        "id": "insight-lander",
        "name": "InSight Geophysical Lander",
        "mission": "Discovery Program (InSight)",
        "body": "Mars",
        "type": "lander",
        "year": 2018,
        "landingDate": "November 26, 2018",
        "leftBehindDate": "December 15, 2022",
        "lastContact": "December 15, 2022 (Sol 1440)",
        "coordinatesFormatted": "4.5024° N, 135.6234° E (Elysium Planitia)",
        "whyLeft": "Left stationary on Elysium Planitia after fine Martian atmospheric dust heavily coated its circular solar panels, cutting power generation below survival levels.",
        "scienceEnabled": "Deployed SEIS (dome seismometer) directly onto Martian bedrock. Detected over 1,319 Marsquakes and meteorite impacts, mapping the depth of Mars's crust, mantle, and molten liquid core.",
        "image": "https://images-assets.nasa.gov/image/PIA22329/PIA22329~orig.jpg",
        "imageCredit": "NASA / JPL-Caltech",
        "nasaSource": "NASA Planetary Data System (PDS) / Mars Trek",
        "datasetId": "PDS-GEO-INSIGHT-SEIS-EDR-V1.0",
        "funFact": "InSight detected the biggest seismic quake ever measured on another planet: a magnitude 4.7 Marsquake in May 2022 that reverberated across the globe for 10 hours!"
      }
    },
    {
      "type": "Feature",
      "geometry": {
        "type": "Point",
        "coordinates": [-125.7492, 68.2188]
      },
      "properties": {
        "id": "phoenix-lander",
        "name": "Phoenix Mars Lander",
        "mission": "Mars Scout Program",
        "body": "Mars",
        "type": "lander",
        "year": 2008,
        "landingDate": "May 25, 2008",
        "leftBehindDate": "November 2, 2008",
        "lastContact": "November 2, 2008 (Sol 157)",
        "coordinatesFormatted": "68.2188° N, 125.7492° W (Green Valley, Vastitas Borealis)",
        "whyLeft": "Stationary arctic lander. Completed primary science before extreme northern polar winter plunged the site into darkness and buried the lander under thick dry ice (frozen carbon dioxide).",
        "scienceEnabled": "Scraped subterranean permafrost with its robotic arm, directly uncovering pure water ice centimeters beneath the red dust and analyzing alkaline soil chemistry suitable for asparagus growth.",
        "image": "https://images-assets.nasa.gov/image/PIA10729/PIA10729~orig.jpg",
        "imageCredit": "NASA / JPL-Caltech / University of Arizona",
        "nasaSource": "NASA Planetary Data System (PDS)",
        "datasetId": "PDS-GEO-PHX-TEGA-RDR-V1.0",
        "funFact": "Phoenix photographed ice chips dug by its trench scoop that sublimated directly from solid into gas over 4 days, proving it was real water ice!"
      }
    },
    {
      "type": "Feature",
      "geometry": {
        "type": "Point",
        "coordinates": [77.4508, 18.4447]
      },
      "properties": {
        "id": "ingenuity-helicopter",
        "name": "Ingenuity Mars Helicopter",
        "mission": "Mars 2020 Mission",
        "body": "Mars",
        "type": "rover",
        "year": 2021,
        "landingDate": "February 18, 2021",
        "leftBehindDate": "January 18, 2024 (Rotor blade retirement)",
        "lastContact": "April 16, 2024 (Final telemetry download)",
        "coordinatesFormatted": "18.4447° N, 77.4508° E (Valinor Hills, Jezero Crater)",
        "whyLeft": "Completed 72 powered flights across Mars (designed for only 5). Stationed permanently at 'Valinor Hills' after sustaining rotor blade tip damage during its final descent in January 2024.",
        "scienceEnabled": "First powered aerodynamic flight on another planet. Served as an aerial scout for Perseverance rover, proving powered rotorcraft flight in Mars's ultra-thin atmosphere (1% of Earth's density).",
        "image": "https://images-assets.nasa.gov/image/PIA24647/PIA24647~orig.jpg",
        "imageCredit": "NASA / JPL-Caltech",
        "nasaSource": "NASA Planetary Data System (PDS) / Mars Trek",
        "datasetId": "PDS-GEO-M2020-HELI-EDR-V1.0",
        "funFact": "Carried a small swatch of muslin fabric from the wing of the 1903 Wright Brothers flyer attached under its solar panel!"
      }
    }
  ]
}
